[{"OBJECT_NAME":"STARLINK-6137","OBJECT_ID":"2023-090BH","EPOCH":"2026-03-09T12:55:09.307488","MEAN_MOTION":15.02536705,"ECCENTRICITY":0.00013314,"INCLINATION":43.0039,"RA_OF_ASC_NODE":262.1869,"ARG_OF_PERICENTER":264.971,"MEAN_ANOMALY":95.098,"EPHEMERIS_TYPE":0,"CLASSIFICATION_TYPE":"U","NORAD_CAT_ID":57156,"ELEMENT_SET_NO":999,"REV_AT_EPOCH":15054,"BSTAR":2.8263771e-5,"MEAN_MOTION_DOT":1.78e-6,"MEAN_MOTION_DDOT":0},{"OBJECT_NAME":"CZ-6A DEB","OBJECT_ID":"2024-140RW","EPOCH":"2026-03-09T13:41:33.080928","MEAN_MOTION":14.61642776,"ECCENTRICITY":0.0186599,"INCLINATION":89.0814,"RA_OF_ASC_NODE":287.5784,"ARG_OF_PERICENTER":250.6629,"MEAN_ANOMALY":107.4326,"EPHEMERIS_TYPE":0,"CLASSIFICATION_TYPE":"U","NORAD_CAT_ID":61176,"ELEMENT_SET_NO":999,"REV_AT_EPOCH":8226,"BSTAR":0.00033771,"MEAN_MOTION_DOT":2.172e-5,"MEAN_MOTION_DDOT":0}]
